CCSDS_OMM_VERS = 2.0
CREATION_DATE  = 
ORIGINATOR     = 

OBJECT_NAME    = SL-3 R/B
OBJECT_ID      = 1982-079B
CENTER_NAME    = EARTH
REF_FRAME      = TEME
TIME_SYSTEM    = UTC
MEAN_ELEMENT_THEORY = SGP/SGP4

EPOCH          = 2026-03-05T08:03:20.180736
MEAN_MOTION    = 15.24719795
ECCENTRICITY   = .00248803
INCLINATION    = 81.1477
RA_OF_ASC_NODE = 198.2170
ARG_OF_PERICENTER = 179.2830
MEAN_ANOMALY   = 180.8443

EPHEMERIS_TYPE = 0
CLASSIFICATION_TYPE = U
NORAD_CAT_ID   = 13403
ELEMENT_SET_NO = 999
REV_AT_EPOCH   = 37703
BSTAR          = .35227419E-3
MEAN_MOTION_DOT = .882E-4
MEAN_MOTION_DDOT = 0

CCSDS_OMM_VERS = 2.0
CREATION_DATE  = 
ORIGINATOR     = 

OBJECT_NAME    = SL-14 R/B
OBJECT_ID      = 1982-092B
CENTER_NAME    = EARTH
REF_FRAME      = TEME
TIME_SYSTEM    = UTC
MEAN_ELEMENT_THEORY = SGP/SGP4

EPOCH          = 2026-03-05T06:26:17.911104
MEAN_MOTION    = 14.86661399
ECCENTRICITY   = .00192643
INCLINATION    = 82.5702
RA_OF_ASC_NODE = 145.5346
ARG_OF_PERICENTER = 319.1682
MEAN_ANOMALY   = 100.0657

EPHEMERIS_TYPE = 0
CLASSIFICATION_TYPE = U
NORAD_CAT_ID   = 13553
ELEMENT_SET_NO = 999
REV_AT_EPOCH   = 32827
BSTAR          = .73133221E-4
MEAN_MOTION_DOT = .676E-5
MEAN_MOTION_DDOT = 0

CCSDS_OMM_VERS = 2.0
CREATION_DATE  = 
ORIGINATOR     = 

OBJECT_NAME    = SL-3 R/B
OBJECT_ID      = 1983-010B
CENTER_NAME    = EARTH
REF_FRAME      = TEME
TIME_SYSTEM    = UTC
MEAN_ELEMENT_THEORY = SGP/SGP4

EPOCH          = 2026-03-05T05:32:46.709088
MEAN_MOTION    = 15.46165473
ECCENTRICITY   = .00183325
INCLINATION    = 81.1066
RA_OF_ASC_NODE = 7.7115
ARG_OF_PERICENTER = 65.2047
MEAN_ANOMALY   = 295.1102

EPHEMERIS_TYPE = 0
CLASSIFICATION_TYPE = U
NORAD_CAT_ID   = 13819
ELEMENT_SET_NO = 999
REV_AT_EPOCH   = 35725
BSTAR          = .42662315E-3
MEAN_MOTION_DOT = .21117E-3
MEAN_MOTION_DDOT = 0

CCSDS_OMM_VERS = 2.0
CREATION_DATE  = 
ORIGINATOR     = 

OBJECT_NAME    = SL-3 R/B
OBJECT_ID      = 1983-075B
CENTER_NAME    = EARTH
REF_FRAME      = TEME
TIME_SYSTEM    = UTC
MEAN_ELEMENT_THEORY = SGP/SGP4

EPOCH          = 2026-03-05T06:20:03.342912
MEAN_MOTION    = 15.38288914
ECCENTRICITY   = .00197946
INCLINATION    = 97.6136
RA_OF_ASC_NODE = 68.6735
ARG_OF_PERICENTER = 243.1653
MEAN_ANOMALY   = 116.7567

EPHEMERIS_TYPE = 0
CLASSIFICATION_TYPE = U
NORAD_CAT_ID   = 14208
ELEMENT_SET_NO = 999
REV_AT_EPOCH   = 32947
BSTAR          = .37085702E-3
MEAN_MOTION_DOT = .14006E-3
MEAN_MOTION_DDOT = 0

CCSDS_OMM_VERS = 2.0
CREATION_DATE  = 
ORIGINATOR     = 

OBJECT_NAME    = COSMOS 1536
OBJECT_ID      = 1984-013A
CENTER_NAME    = EARTH
REF_FRAME      = TEME
TIME_SYSTEM    = UTC
MEAN_ELEMENT_THEORY = SGP/SGP4

EPOCH          = 2026-03-05T04:31:55.630848
MEAN_MOTION    = 15.23756826
ECCENTRICITY   = .00127026
INCLINATION    = 82.5434
RA_OF_ASC_NODE = 112.3248
ARG_OF_PERICENTER = 300.7697
MEAN_ANOMALY   = 59.2289

EPHEMERIS_TYPE = 0
CLASSIFICATION_TYPE = U
NORAD_CAT_ID   = 14699
ELEMENT_SET_NO = 999
REV_AT_EPOCH   = 27193
BSTAR          = .31531771E-3
MEAN_MOTION_DOT = .7629E-4
MEAN_MOTION_DDOT = 0

CCSDS_OMM_VERS = 2.0
CREATION_DATE  = 
ORIGINATOR     = 

OBJECT_NAME    = SL-14 R/B
OBJECT_ID      = 1984-027B
CENTER_NAME    = EARTH
REF_FRAME      = TEME
TIME_SYSTEM    = UTC
MEAN_ELEMENT_THEORY = SGP/SGP4

EPOCH          = 2026-03-04T23:30:30.627360
MEAN_MOTION    = 14.85970460
ECCENTRICITY   = .00177644
INCLINATION    = 82.5381
RA_OF_ASC_NODE = 249.4315
ARG_OF_PERICENTER = 353.9919
MEAN_ANOMALY   = 6.1081

EPHEMERIS_TYPE = 0
CLASSIFICATION_TYPE = U
NORAD_CAT_ID   = 14820
ELEMENT_SET_NO = 999
REV_AT_EPOCH   = 24693
BSTAR          = .68916326E-4
MEAN_MOTION_DOT = .627E-5
MEAN_MOTION_DDOT = 0

CCSDS_OMM_VERS = 2.0
CREATION_DATE  = 
ORIGINATOR     = 

OBJECT_NAME    = SL-8 R/B
OBJECT_ID      = 1985-006B
CENTER_NAME    = EARTH
REF_FRAME      = TEME
TIME_SYSTEM    = UTC
MEAN_ELEMENT_THEORY = SGP/SGP4

EPOCH          = 2026-03-05T00:19:27.444576
MEAN_MOTION    = 14.37778848
ECCENTRICITY   = .00186373
INCLINATION    = 74.0433
RA_OF_ASC_NODE = 269.7539
ARG_OF_PERICENTER = 188.6470
MEAN_ANOMALY   = 322.4053

EPHEMERIS_TYPE = 0
CLASSIFICATION_TYPE = U
NORAD_CAT_ID   = 15483
ELEMENT_SET_NO = 999
REV_AT_EPOCH   = 15335
BSTAR          = .72308355E-4
MEAN_MOTION_DOT = .192E-5
MEAN_MOTION_DDOT = 0

CCSDS_OMM_VERS = 2.0
CREATION_DATE  = 
ORIGINATOR     = 

OBJECT_NAME    = SL-12 R/B(2)
OBJECT_ID      = 1985-042D
CENTER_NAME    = EARTH
REF_FRAME      = TEME
TIME_SYSTEM    = UTC
MEAN_ELEMENT_THEORY = SGP/SGP4

EPOCH          = 2026-03-05T06:21:31.025088
MEAN_MOTION    = 14.21981194
ECCENTRICITY   = .0033424
INCLINATION    = 71.1064
RA_OF_ASC_NODE = 97.0780
ARG_OF_PERICENTER = 135.3926
MEAN_ANOMALY   = 298.7744

EPHEMERIS_TYPE = 0
CLASSIFICATION_TYPE = U
NORAD_CAT_ID   = 15772
ELEMENT_SET_NO = 999
REV_AT_EPOCH   = 11376
BSTAR          = .86963675E-4
MEAN_MOTION_DOT = .146E-5
MEAN_MOTION_DDOT = 0

CCSDS_OMM_VERS = 2.0
CREATION_DATE  = 
ORIGINATOR     = 

OBJECT_NAME    = SL-14 R/B
OBJECT_ID      = 1985-069B
CENTER_NAME    = EARTH
REF_FRAME      = TEME
TIME_SYSTEM    = UTC
MEAN_ELEMENT_THEORY = SGP/SGP4

EPOCH          = 2026-03-05T04:01:27.753312
MEAN_MOTION    = 14.86426563
ECCENTRICITY   = .00180723
INCLINATION    = 82.5275
RA_OF_ASC_NODE = 29.1846
ARG_OF_PERICENTER = 203.0256
MEAN_ANOMALY   = 157.0153

EPHEMERIS_TYPE = 0
CLASSIFICATION_TYPE = U
NORAD_CAT_ID   = 15945
ELEMENT_SET_NO = 999
REV_AT_EPOCH   = 17216
BSTAR          = .77503676E-4
MEAN_MOTION_DOT = .71E-5
MEAN_MOTION_DDOT = 0

CCSDS_OMM_VERS = 2.0
CREATION_DATE  = 
ORIGINATOR     = 

OBJECT_NAME    = SL-16 R/B
OBJECT_ID      = 1985-097B
CENTER_NAME    = EARTH
REF_FRAME      = TEME
TIME_SYSTEM    = UTC
MEAN_ELEMENT_THEORY = SGP/SGP4

EPOCH          = 2026-03-05T05:56:21.007968
MEAN_MOTION    = 14.16599689
ECCENTRICITY   = .00099716
INCLINATION    = 71.0036
RA_OF_ASC_NODE = 149.9060
ARG_OF_PERICENTER = 265.1071
MEAN_ANOMALY   = 114.7583

EPHEMERIS_TYPE = 0
CLASSIFICATION_TYPE = U
NORAD_CAT_ID   = 16182
ELEMENT_SET_NO = 999
REV_AT_EPOCH   = 8660
BSTAR          = -.16438988E-4
MEAN_MOTION_DOT = -.81E-6
MEAN_MOTION_DDOT = 0

CCSDS_OMM_VERS = 2.0
CREATION_DATE  = 
ORIGINATOR     = 

OBJECT_NAME    = SL-14 R/B
OBJECT_ID      = 1986-006B
CENTER_NAME    = EARTH
REF_FRAME      = TEME
TIME_SYSTEM    = UTC
MEAN_ELEMENT_THEORY = SGP/SGP4

EPOCH          = 2026-03-05T06:43:56.893440
MEAN_MOTION    = 14.86808181
ECCENTRICITY   = .00751414
INCLINATION    = 82.5234
RA_OF_ASC_NODE = 263.8882
ARG_OF_PERICENTER = 287.7293
MEAN_ANOMALY   = 71.5732

EPHEMERIS_TYPE = 0
CLASSIFICATION_TYPE = U
NORAD_CAT_ID   = 16496
ELEMENT_SET_NO = 999
REV_AT_EPOCH   = 14855
BSTAR          = .86685682E-4
MEAN_MOTION_DOT = .838E-5
MEAN_MOTION_DDOT = 0

CCSDS_OMM_VERS = 2.0
CREATION_DATE  = 
ORIGINATOR     = 

OBJECT_NAME    = COSMOS 1743
OBJECT_ID      = 1986-034A
CENTER_NAME    = EARTH
REF_FRAME      = TEME
TIME_SYSTEM    = UTC
MEAN_ELEMENT_THEORY = SGP/SGP4

EPOCH          = 2026-03-05T00:27:01.728000
MEAN_MOTION    = 15.58162664
ECCENTRICITY   = .00020834
INCLINATION    = 82.5292
RA_OF_ASC_NODE = 78.7321
ARG_OF_PERICENTER = 326.7160
MEAN_ANOMALY   = 33.3964

EPHEMERIS_TYPE = 0
CLASSIFICATION_TYPE = U
NORAD_CAT_ID   = 16719
ELEMENT_SET_NO = 999
REV_AT_EPOCH   = 17952
BSTAR          = .49979164E-3
MEAN_MOTION_DOT = .37801E-3
MEAN_MOTION_DDOT = 0

