SL-3 R/B                
1 13403U 82079B   26064.33565024  .00008820  00000+0  35227-3 0  9992
2 13403  81.1477 198.2170 0024880 179.2830 180.8443 15.24719795377039
SL-14 R/B               
1 13553U 82092B   26064.26826286  .00000676  00000+0  73133-4 0  9995
2 13553  82.5702 145.5346 0019264 319.1682 100.0657 14.86661399328277
SL-3 R/B                
1 13819U 83010B   26064.23109617  .00021117  00000+0  42662-3 0  9995
2 13819  81.1066   7.7115 0018332  65.2047 295.1102 15.46165473357252
SL-3 R/B                
1 14208U 83075B   26064.26392758  .00014006  00000+0  37086-3 0  9995
2 14208  97.6136  68.6735 0019794 243.1653 116.7567 15.38288914329475
COSMOS 1536             
1 14699U 84013A   26064.18883832  .00007629  00000+0  31532-3 0  9994
2 14699  82.5434 112.3248 0012702 300.7697  59.2289 15.23756826271934
SL-14 R/B               
1 14820U 84027B   26063.97952115  .00000627  00000+0  68916-4 0  9990
2 14820  82.5381 249.4315 0017764 353.9919   6.1081 14.85970460246930
SL-8 R/B                
1 15483U 85006B   26064.01351209  .00000192  00000+0  72308-4 0  9994
2 15483  74.0433 269.7539 0018637 188.6470 322.4053 14.37778848153357
SL-12 R/B(2)            
1 15772U 85042D   26064.26494242  .00000146  00000+0  86964-4 0  9999
2 15772  71.1064  97.0780 0033424 135.3926 298.7744 14.21981194113768
SL-14 R/B               
1 15945U 85069B   26064.16768233  .00000710  00000+0  77504-4 0  9990
2 15945  82.5275  29.1846 0018072 203.0256 157.0153 14.86426563172165
SL-16 R/B               
1 16182U 85097B   26064.24746537 -.00000081  00000+0 -16439-4 0  9990
2 16182  71.0036 149.9060 0009971 265.1071 114.7583 14.16599689 86601
SL-14 R/B               
1 16496U 86006B   26064.28051960  .00000838  00000+0  86686-4 0  9991
2 16496  82.5234 263.8882 0075141 287.7293  71.5732 14.86808181148558
COSMOS 1743             
1 16719U 86034A   26064.01877000  .00037801  00000+0  49979-3 0  9995
2 16719  82.5292  78.7321 0002083 326.7160  33.3964 15.58162664179526
